OBJECT_NAME,OBJECT_ID,EPOCH,MEAN_MOTION,ECCENTRICITY,INCLINATION,RA_OF_ASC_NODE,ARG_OF_PERICENTER,MEAN_ANOMALY,EPHEMERIS_TYPE,CLASSIFICATION_TYPE,NORAD_CAT_ID,ELEMENT_SET_NO,REV_AT_EPOCH,BSTAR,MEAN_MOTION_DOT,MEAN_MOTION_DDOT
ONEWEB-0667,2023-029AH,2026-06-03T07:34:33.907872,13.20771493,.00018227,87.9191,277.1949,99.1302,261.0038,0,U,55827,999,15931,.18234756E-4,.2E-6,0
ONEWEB-0669,2023-029AJ,2026-06-05T06:43:37.042176,13.20772362,.00024397,87.9186,276.8150,91.4201,268.7212,0,U,55828,999,15957,.55998048E-3,.241E-5,0
ONEWEB-0670,2023-029AK,2026-06-03T10:26:21.954048,13.14492551,.0002187,87.8988,292.4816,96.4969,263.6410,0,U,55829,999,15762,.35180427E-2,.1317E-4,0
ONEWEB-0671,2023-029AL,2026-06-05T03:50:45.575808,13.19725656,.00017209,87.9161,307.3730,91.6132,268.5198,0,U,55830,999,15731,-.35382841E-3,-.129E-5,0
ONEWEB-0672,2023-029AM,2026-06-05T06:36:20.384352,13.20771151,.00021447,87.9194,276.8085,101.9581,258.1793,0,U,55831,999,15957,.29079333E-3,.131E-5,0
ONEWEB-0673,2023-029AN,2026-06-03T11:15:55.971648,13.19725766,.00017726,87.9168,307.7007,90.3964,269.7372,0,U,55832,999,15709,.1233617E-3,.62E-6,0
ONEWEB-0674,2023-029AP,2026-06-05T01:52:06.487968,13.14502834,.00019358,87.8942,292.1329,84.4040,275.7311,0,U,55833,999,15782,-.64638391E-4,-.11E-6,0
ONEWEB-0675,2023-029AQ,2026-06-03T11:37:31.823904,13.19727388,.00019309,87.9157,307.7084,105.8365,254.2980,0,U,55834,999,15711,-.38805876E-4,-.3E-7,0
ONEWEB-0720,2023-029AR,2026-06-03T11:26:08.910528,13.19726764,.00015532,87.9162,307.7110,107.6174,252.5128,0,U,55835,999,15703,-.16971075E-4,.6E-7,0
ONEWEB-0537,2023-043A,2026-06-04T17:32:46.798080,13.16593335,.0002241,87.9099,231.2451,105.9960,254.1418,0,U,56046,999,15732,.31244E-3,.132E-5,0
ONEWEB-0538,2023-043B,2026-06-04T17:23:40.106400,13.16590843,.0002207,87.9114,231.2490,110.8049,249.3319,0,U,56047,999,15733,-.10428E-2,-.386E-5,0
ONEWEB-0546,2023-043C,2026-06-04T17:05:25.583424,13.16594007,.00027042,87.9106,231.2505,105.9689,254.1741,0,U,56048,999,15732,-.83153718E-4,-.19E-6,0
ONEWEB-0547,2023-043D,2026-06-04T16:22:49.569024,13.21823883,.0001903,87.9260,246.4618,102.5266,257.6081,0,U,56049,999,15657,.12741E-3,.66E-6,0
ONEWEB-0548,2023-043E,2026-06-05T06:26:48.449184,13.16595578,.00021864,87.9100,231.1371,86.6964,273.4417,0,U,56050,999,15739,.33671963E-3,.142E-5,0
ONEWEB-0549,2023-043F,2026-06-05T06:46:22.644192,13.21824757,.00018532,87.9256,246.3492,109.6909,250.4425,0,U,56051,999,15665,.22581594E-3,.106E-5,0
ONEWEB-0550,2023-043G,2026-06-05T06:27:00.844128,13.21826384,.00020632,87.9261,246.3502,99.5706,260.5661,0,U,56052,999,15665,.17147025E-3,.84E-6,0
ONEWEB-0551,2023-043H,2026-06-04T16:21:50.404896,13.15548865,.0001744,87.8998,261.7182,112.1230,248.0085,0,U,56053,999,15475,.89013E-6,.13E-6,0
ONEWEB-0552,2023-043J,2026-06-04T17:36:43.071840,13.21827319,.0001852,87.9256,246.4619,97.0431,263.0914,0,U,56054,999,15658,.10563E-3,.57E-6,0
ONEWEB-0553,2023-043K,2026-06-04T17:14:32.223264,13.16593282,.0002424,87.9102,231.2496,101.7106,258.4297,0,U,56055,999,15733,.56587E-3,.229E-5,0
ONEWEB-0554,2023-043L,2026-06-04T16:56:18.342240,13.16593917,.00022409,87.9106,231.2620,94.5394,265.5993,0,U,56056,999,15731,-.28300826E-3,-.95E-6,0
ONEWEB-0555,2023-043M,2026-06-05T06:37:03.674208,13.16596148,.00026241,87.9096,231.1370,104.3194,255.8228,0,U,56057,999,15739,.57581035E-3,.233E-5,0
ONEWEB-0557,2023-043N,2026-06-04T16:22:05.631168,13.16593748,.0003108,87.9095,231.2655,88.9004,271.2483,0,U,56058,999,15731,-.1833E-4,.6E-7,0
ONEWEB-0558,2023-043P,2026-06-04T17:27:01.289664,13.21826976,.0001955,87.9258,246.4575,109.3651,250.7694,0,U,56059,999,15659,.42767E-4,.31E-6,0
ONEWEB-0559,2023-043Q,2026-06-04T17:10:03.376704,13.21827010,.0001818,87.9261,246.4547,103.5587,256.5750,0,U,56060,999,15660,-.34282E-4,-.1E-7,0
ONEWEB-0566,2023-043R,2026-06-05T00:16:23.976768,13.21825952,.0001696,87.9258,246.3939,105.3821,254.7501,0,U,56061,999,15662,.11588067E-3,.61E-6,0
ONEWEB-0568,2023-043S,2026-06-04T05:50:34.060992,13.16593991,.00022646,87.9093,231.3395,100.9654,259.1732,0,U,56062,999,15727,-.15183312E-3,-.45E-6,0
ONEWEB-0574,2023-043T,2026-06-05T07:22:42.392640,13.21826680,.00020891,87.9271,246.3360,92.8351,267.3022,0,U,56063,999,15670,.19030497E-3,.92E-6,0
ONEWEB-0575,2023-043U,2026-06-04T16:38:03.746688,13.16594021,.0002348,87.9092,231.2471,85.6047,274.5353,0,U,56064,999,15732,.45323E-5,.15E-6,0
ONEWEB-0576,2023-043V,2026-06-04T16:10:41.533248,13.16593552,.0002219,87.9108,231.2593,94.3684,265.7701,0,U,56065,999,15731,.23908E-4,.22E-6,0
ONEWEB-0577,2023-043W,2026-06-04T16:19:49.012032,13.16592897,.0002599,87.9105,231.2557,86.2545,273.8883,0,U,56066,999,15734,-.10213E-3,-.26E-6,0
