ONEWEB-0667             
1 55827U 23029AH  26154.31567023  .00000020  00000+0  18235-4 0  9992
2 55827  87.9191 277.1949 0001822  99.1302 261.0038 13.20771493159316
ONEWEB-0669             
1 55828U 23029AJ  26156.28028984  .00000241  00000+0  55998-3 0  9990
2 55828  87.9186 276.8150 0002439  91.4201 268.7212 13.20772362159571
ONEWEB-0670             
1 55829U 23029AK  26154.43497632  .00001317  00000+0  35180-2 0  9991
2 55829  87.8988 292.4816 0002187  96.4969 263.6410 13.14492551157620
ONEWEB-0671             
1 55830U 23029AL  26156.16024972 -.00000129  00000+0 -35383-3 0  9996
2 55830  87.9161 307.3730 0001720  91.6132 268.5198 13.19725656157311
ONEWEB-0672             
1 55831U 23029AM  26156.27523593  .00000131  00000+0  29079-3 0  9998
2 55831  87.9194 276.8085 0002144 101.9581 258.1793 13.20771151159574
ONEWEB-0673             
1 55832U 23029AN  26154.46939782  .00000062  00000+0  12336-3 0  9990
2 55832  87.9168 307.7007 0001772  90.3964 269.7372 13.19725766157091
ONEWEB-0674             
1 55833U 23029AP  26156.07785287 -.00000011  00000+0 -64638-4 0  9998
2 55833  87.8942 292.1329 0001935  84.4040 275.7311 13.14502834157820
ONEWEB-0675             
1 55834U 23029AQ  26154.48439611 -.00000003  00000+0 -38806-4 0  9998
2 55834  87.9157 307.7084 0001930 105.8365 254.2980 13.19727388157118
ONEWEB-0720             
1 55835U 23029AR  26154.47649202  .00000006  00000+0 -16971-4 0  9998
2 55835  87.9162 307.7110 0001553 107.6174 252.5128 13.19726764157037
ONEWEB-0537             
1 56046U 23043A   26155.73109720  .00000132  00000+0  31244-3 0  9993
2 56046  87.9099 231.2451 0002241 105.9960 254.1418 13.16593335157324
ONEWEB-0538             
1 56047U 23043B   26155.72476975 -.00000386  00000+0 -10428-2 0  9995
2 56047  87.9114 231.2490 0002207 110.8049 249.3319 13.16590843157339
ONEWEB-0546             
1 56048U 23043C   26155.71210166 -.00000019  00000+0 -83154-4 0  9994
2 56048  87.9106 231.2505 0002704 105.9689 254.1741 13.16594007157323
ONEWEB-0547             
1 56049U 23043D   26155.68251816  .00000066  00000+0  12741-3 0  9991
2 56049  87.9260 246.4618 0001903 102.5266 257.6081 13.21823883156576
ONEWEB-0548             
1 56050U 23043E   26156.26861631  .00000142  00000+0  33672-3 0  9991
2 56050  87.9100 231.1371 0002186  86.6964 273.4417 13.16595578157390
ONEWEB-0549             
1 56051U 23043F   26156.28220653  .00000106  00000+0  22582-3 0  9995
2 56051  87.9256 246.3492 0001853 109.6909 250.4425 13.21824757156652
ONEWEB-0550             
1 56052U 23043G   26156.26875977  .00000084  00000+0  17147-3 0  9995
2 56052  87.9261 246.3502 0002063  99.5706 260.5661 13.21826384156659
ONEWEB-0551             
1 56053U 23043H   26155.68183339  .00000013  00000+0  89013-6 0  9991
2 56053  87.8998 261.7182 0001744 112.1230 248.0085 13.15548865154758
ONEWEB-0552             
1 56054U 23043J   26155.73383185  .00000057  00000+0  10563-3 0  9998
2 56054  87.9256 246.4619 0001852  97.0431 263.0914 13.21827319156588
ONEWEB-0553             
1 56055U 23043K   26155.71842851  .00000229  00000+0  56587-3 0  9994
2 56055  87.9102 231.2496 0002424 101.7106 258.4297 13.16593282157331
ONEWEB-0554             
1 56056U 23043L   26155.70576785 -.00000095  00000+0 -28301-3 0  9990
2 56056  87.9106 231.2620 0002240  94.5394 265.5993 13.16593917157314
ONEWEB-0555             
1 56057U 23043M   26156.27573697  .00000233  00000+0  57581-3 0  9997
2 56057  87.9096 231.1370 0002624 104.3194 255.8228 13.16596148157398
ONEWEB-0557             
1 56058U 23043N   26155.68200962  .00000006  00000+0 -18330-4 0  9993
2 56058  87.9095 231.2655 0003108  88.9004 271.2483 13.16593748157310
ONEWEB-0558             
1 56059U 23043P   26155.72709826  .00000031  00000+0  42767-4 0  9990
2 56059  87.9258 246.4575 0001955 109.3651 250.7694 13.21826976156598
ONEWEB-0559             
1 56060U 23043Q   26155.71531686 -.00000001  00000+0 -34282-4 0  9990
2 56060  87.9261 246.4547 0001818 103.5587 256.5750 13.21827010156604
ONEWEB-0566             
1 56061U 23043R   26156.01138862  .00000061  00000+0  11588-3 0  9991
2 56061  87.9258 246.3939 0001696 105.3821 254.7501 13.21825952156629
ONEWEB-0568             
1 56062U 23043S   26155.24344978 -.00000045  00000+0 -15183-3 0  9992
2 56062  87.9093 231.3395 0002264 100.9654 259.1732 13.16593991157270
ONEWEB-0574             
1 56063U 23043T   26156.30743510  .00000092  00000+0  19030-3 0  9991
2 56063  87.9271 246.3360 0002089  92.8351 267.3022 13.21826680156705
ONEWEB-0575             
1 56064U 23043U   26155.69309892  .00000015  00000+0  45323-5 0  9995
2 56064  87.9092 231.2471 0002348  85.6047 274.5353 13.16594021157324
ONEWEB-0576             
1 56065U 23043V   26155.67409182  .00000022  00000+0  23908-4 0  9999
2 56065  87.9108 231.2593 0002219  94.3684 265.7701 13.16593552157315
ONEWEB-0577             
1 56066U 23043W   26155.68042838 -.00000026  00000+0 -10213-3 0  9992
2 56066  87.9105 231.2557 0002599  86.2545 273.8883 13.16592897157345
